[{"OBJECT_NAME":"POLYITAN-1","OBJECT_ID":"2014-033AJ","EPOCH":"2026-03-09T22:27:50.258304","MEAN_MOTION":15.29568085,"ECCENTRICITY":0.00093607,"INCLINATION":98.1053,"RA_OF_ASC_NODE":86.0432,"ARG_OF_PERICENTER":127.248,"MEAN_ANOMALY":232.9614,"EPHEMERIS_TYPE":0,"CLASSIFICATION_TYPE":"U","NORAD_CAT_ID":40042,"ELEMENT_SET_NO":999,"REV_AT_EPOCH":63840,"BSTAR":0.00083772474,"MEAN_MOTION_DOT":0.00024003,"MEAN_MOTION_DDOT":0},{"OBJECT_NAME":"STARLINK-31555","OBJECT_ID":"2024-060D","EPOCH":"2026-03-09T21:34:36.894432","MEAN_MOTION":15.27572673,"ECCENTRICITY":0.0001094,"INCLINATION":43.0029,"RA_OF_ASC_NODE":258.7792,"ARG_OF_PERICENTER":263.3703,"MEAN_ANOMALY":96.7025,"EPHEMERIS_TYPE":0,"CLASSIFICATION_TYPE":"U","NORAD_CAT_ID":59351,"ELEMENT_SET_NO":999,"REV_AT_EPOCH":11014,"BSTAR":9.875847e-6,"MEAN_MOTION_DOT":1.0e-7,"MEAN_MOTION_DDOT":0}]
